{
  "norad_id": 53798,
  "name": "STARLINK-4712",
  "history": [
    {
      "epoch": "2026-03-28T17:06:53.514432Z",
      "apogee_km": 540.6389642716103,
      "perigee_km": 538.8674309498056,
      "latitude_deg": 1.194137992021998e-05,
      "longitude_deg": 105.47291369056524,
      "height_km": 540.6428746187454,
      "semi_major_axis_km": 6917.890197610707,
      "eccentricity": 0.00012804,
      "inclination_deg": 53.2177,
      "raan_deg": 188.3255,
      "arg_perigee_deg": 89.601,
      "mean_anomaly_deg": 270.5129,
      "mean_motion_rev_day": 15.08836791
    }
  ]
}